{"type": "FeatureCollection", "features": [ {"type": "Feature", "properties": {"norad_id": 66707, "name": "FLOCK 4H-4", "group": "last-30-days", "lat": -75.81154384420682, "lon": -142.93313315243765, "alt_km": 519.1509874236499, "timestamp": "2025-12-22T14:45:56.096682+00:00", "meta": {"OBJECT_NAME": "FLOCK 4H-4", "OBJECT_ID": "2025-276AT", "EPOCH": "2025-12-22T05:43:04.299744", "MEAN_MOTION": 15.17201196, "ECCENTRICITY": 0.00035873, "INCLINATION": 97.4433, "RA_OF_ASC_NODE": 67.8348, "ARG_OF_PERICENTER": 257.2742, "MEAN_ANOMALY": 102.8091, "EPHEMERIS_TYPE": 0, "CLASSIFICATION_TYPE": "U", "NORAD_CAT_ID": 66707, "ELEMENT_SET_NO": 999, "REV_AT_EPOCH": 356, "BSTAR": 0.00053239909, "MEAN_MOTION_DOT": 0.00010522, "MEAN_MOTION_DDOT": 0}, "tle": {"line1": "1 66707U 25276AT  25356.23824421  .00010522  00000+0  53240-3 0  9991", "line2": "2 66707  97.4433  67.8348 0003587 257.2742 102.8091 15.17201196  3564"}}, "geometry": {"type": "Point", "coordinates": [-142.93313315243765, -75.81154384420682]}}, {"type": "Feature", "properties": {"norad_id": 66708, "name": "FLOCK 4H-5", "group": "last-30-days", "lat": -20.464014436212498, "lon": 71.01991681621057, "alt_km": 517.3616277235742, "timestamp": "2025-12-22T14:45:56.096694+00:00", "meta": {"OBJECT_NAME": "FLOCK 4H-5", "OBJECT_ID": "2025-276AU", "EPOCH": "2025-12-22T05:21:54.522144", "MEAN_MOTION": 15.18160153, "ECCENTRICITY": 0.00011633, "INCLINATION": 97.4389, "RA_OF_ASC_NODE": 67.8401, "ARG_OF_PERICENTER": 127.9914, "MEAN_ANOMALY": 232.1425, "EPHEMERIS_TYPE": 0, "CLASSIFICATION_TYPE": "U", "NORAD_CAT_ID": 66708, "ELEMENT_SET_NO": 999, "REV_AT_EPOCH": 356, "BSTAR": 0.00055794484, "MEAN_MOTION_DOT": 0.00011338, "MEAN_MOTION_DDOT": 0}, "tle": {"line1": "1 66708U 25276AU  25356.22354771  .00011338  00000+0  55794-3 0  9999", "line2": "2 66708  97.4389  67.8401 0001163 127.9914 232.1425 15.18160153  3563"}}, "geometry": {"type": "Point", "coordinates": [71.01991681621057, -20.464014436212498]}}, {"type": "Feature", "properties": {"norad_id": 66709, "name": "FLOCK 4H-6", "group": "last-30-days", "lat": -39.931693850307184, "lon": 74.51847927500057, "alt_km": 519.3733689747296, "timestamp": "2025-12-22T14:45:56.096713+00:00", "meta": {"OBJECT_NAME": "FLOCK 4H-6", "OBJECT_ID": "2025-276AV", "EPOCH": "2025-12-22T03:52:05.063808", "MEAN_MOTION": 15.17898902, "ECCENTRICITY": 0.00026371, "INCLINATION": 97.4436, "RA_OF_ASC_NODE": 67.7889, "ARG_OF_PERICENTER": 211.0187, "MEAN_ANOMALY": 149.0892, "EPHEMERIS_TYPE": 0, "CLASSIFICATION_TYPE": "U", "NORAD_CAT_ID": 66709, "ELEMENT_SET_NO": 999, "REV_AT_EPOCH": 355, "BSTAR": 0.00043307527, "MEAN_MOTION_DOT": 8.717e-05, "MEAN_MOTION_DDOT": 0}, "tle": {"line1": "1 66709U 25276AV  25356.16116972  .00008717  00000+0  43308-3 0  9997", "line2": "2 66709  97.4436  67.7889 0002637 211.0187 149.0892 15.17898902  3552"}}, "geometry": {"type": "Point", "coordinates": [74.51847927500057, -39.931693850307184]}}, {"type": "Feature", "properties": {"norad_id": 66710, "name": "FLOCK 4H-7", "group": "last-30-days", "lat": -77.67459817650001, "lon": 104.92552698043075, "alt_km": 520.107173210491, "timestamp": "2025-12-22T14:45:56.096724+00:00", "meta": {"OBJECT_NAME": "FLOCK 4H-7", "OBJECT_ID": "2025-276AW", "EPOCH": "2025-12-22T05:37:22.141056", "MEAN_MOTION": 15.17475507, "ECCENTRICITY": 0.00010794, "INCLINATION": 97.4392, "RA_OF_ASC_NODE": 67.8242, "ARG_OF_PERICENTER": 299.6269, "MEAN_ANOMALY": 60.4857, "EPHEMERIS_TYPE": 0, "CLASSIFICATION_TYPE": "U", "NORAD_CAT_ID": 66710, "ELEMENT_SET_NO": 999, "REV_AT_EPOCH": 356, "BSTAR": 0.00028842068, "MEAN_MOTION_DOT": 5.711e-05, "MEAN_MOTION_DDOT": 0}, "tle": {"line1": "1 66710U 25276AW  25356.23428404  .00005711  00000+0  28842-3 0  9990", "line2": "2 66710  97.4392  67.8242 0001079 299.6269  60.4857 15.17475507  3561"}}, "geometry": {"type": "Point", "coordinates": [104.92552698043075, -77.67459817650001]}}, {"type": "Feature", "properties": {"norad_id": 66711, "name": "FLOCK 4H-8", "group": "last-30-days", "lat": -78.62546954077497, "lon": 108.75018433110567, "alt_km": 519.1769528380937, "timestamp": "2025-12-22T14:45:56.096734+00:00", "meta": {"OBJECT_NAME": "FLOCK 4H-8", "OBJECT_ID": "2025-276AX", "EPOCH": "2025-12-22T05:37:41.449728", "MEAN_MOTION": 15.17471231, "ECCENTRICITY": 0.00024098, "INCLINATION": 97.4433, "RA_OF_ASC_NODE": 67.844, "ARG_OF_PERICENTER": 272.0349, "MEAN_ANOMALY": 88.0609, "EPHEMERIS_TYPE": 0, "CLASSIFICATION_TYPE": "U", "NORAD_CAT_ID": 66711, "ELEMENT_SET_NO": 999, "REV_AT_EPOCH": 356, "BSTAR": 0.00045919594, "MEAN_MOTION_DOT": 9.135e-05, "MEAN_MOTION_DDOT": 0}, "tle": {"line1": "1 66711U 25276AX  25356.23450752  .00009135  00000+0  45920-3 0  9992", "line2": "2 66711  97.4433  67.8440 0002409 272.0349  88.0609 15.17471231  3561"}}, "geometry": {"type": "Point", "coordinates": [108.75018433110567, -78.62546954077497]}}, {"type": "Feature", "properties": {"norad_id": 66712, "name": "FLOCK 4H-9", "group": "last-30-days", "lat": -40.97809642499122, "lon": 74.75302175006392, "alt_km": 519.0854414184732, "timestamp": "2025-12-22T14:45:56.096747+00:00", "meta": {"OBJECT_NAME": "FLOCK 4H-9", "OBJECT_ID": "2025-276AY", "EPOCH": "2025-12-22T03:52:21.982656", "MEAN_MOTION": 15.17903733, "ECCENTRICITY": 0.00026789, "INCLINATION": 97.4428, "RA_OF_ASC_NODE": 67.7866, "ARG_OF_PERICENTER": 220.4734, "MEAN_ANOMALY": 139.6301, "EPHEMERIS_TYPE": 0, "CLASSIFICATION_TYPE": "U", "NORAD_CAT_ID": 66712, "ELEMENT_SET_NO": 999, "REV_AT_EPOCH": 355, "BSTAR": 0.00048095068, "MEAN_MOTION_DOT": 9.691e-05, "MEAN_MOTION_DDOT": 0}, "tle": {"line1": "1 66712U 25276AY  25356.16136554  .00009691  00000+0  48095-3 0  9999", "line2": "2 66712  97.4428  67.7866 0002678 220.4734 139.6301 15.17903733  3558"}}, "geometry": {"type": "Point", "coordinates": [74.75302175006392, -40.97809642499122]}}, {"type": "Feature", "properties": {"norad_id": 66713, "name": "FLOCK 4H-10", "group": "last-30-days", "lat": -78.04726877562615, "lon": -149.94008343630694, "alt_km": 520.4410505609594, "timestamp": "2025-12-22T14:45:56.096759+00:00", "meta": {"OBJECT_NAME": "FLOCK 4H-10", "OBJECT_ID": "2025-276AZ", "EPOCH": "2025-12-21T12:17:32.542944", "MEAN_MOTION": 15.17170539, "ECCENTRICITY": 0.00026878, "INCLINATION": 97.4432, "RA_OF_ASC_NODE": 67.1151, "ARG_OF_PERICENTER": 252.9711, "MEAN_ANOMALY": 107.1228, "EPHEMERIS_TYPE": 0, "CLASSIFICATION_TYPE": "U", "NORAD_CAT_ID": 66713, "ELEMENT_SET_NO": 999, "REV_AT_EPOCH": 345, "BSTAR": -0.0036543614, "MEAN_MOTION_DOT": -0.00071864, "MEAN_MOTION_DDOT": 0}, "tle": {"line1": "1 66713U 25276AZ  25355.51218221 -.00071864  00000+0 -36544-2 0  9998", "line2": "2 66713  97.4432  67.1151 0002687 252.9711 107.1228 15.17170539  3457"}}, "geometry": {"type": "Point", "coordinates": [-149.94008343630694, -78.04726877562615]}}, {"type": "Feature", "properties": {"norad_id": 66714, "name": "FLOCK 4H-11", "group": "last-30-days", "lat": -69.24826031357628, "lon": 88.39939600782198, "alt_km": 518.3827366589348, "timestamp": "2025-12-22T14:45:56.096769+00:00", "meta": {"OBJECT_NAME": "FLOCK 4H-11", "OBJECT_ID": "2025-276BA", "EPOCH": "2025-12-22T05:34:56.749728", "MEAN_MOTION": 15.17772657, "ECCENTRICITY": 0.00021408, "INCLINATION": 97.4419, "RA_OF_ASC_NODE": 67.8429, "ARG_OF_PERICENTER": 280.408, "MEAN_ANOMALY": 79.6912, "EPHEMERIS_TYPE": 0, "CLASSIFICATION_TYPE": "U", "NORAD_CAT_ID": 66714, "ELEMENT_SET_NO": 999, "REV_AT_EPOCH": 356, "BSTAR": 0.0007264138, "MEAN_MOTION_DOT": 0.00014625, "MEAN_MOTION_DDOT": 0}, "tle": {"line1": "1 66714U 25276BA  25356.23260127  .00014625  00000+0  72641-3 0  9990", "line2": "2 66714  97.4419  67.8429 0002140 280.4080  79.6912 15.17772657  3561"}}, "geometry": {"type": "Point", "coordinates": [88.39939600782198, -69.24826031357628]}}, {"type": "Feature", "properties": {"norad_id": 66715, "name": "FLOCK 4H-12", "group": "last-30-days", "lat": -29.80052501345825, "lon": 72.51179256892594, "alt_km": 518.7541764965872, "timestamp": "2025-12-22T14:45:56.096779+00:00", "meta": {"OBJECT_NAME": "FLOCK 4H-12", "OBJECT_ID": "2025-276BB", "EPOCH": "2025-12-22T05:24:21.966336", "MEAN_MOTION": 15.18068857, "ECCENTRICITY": 0.00019875, "INCLINATION": 97.4396, "RA_OF_ASC_NODE": 67.8365, "ARG_OF_PERICENTER": 188.8195, "MEAN_ANOMALY": 171.3005, "EPHEMERIS_TYPE": 0, "CLASSIFICATION_TYPE": "U", "NORAD_CAT_ID": 66715, "ELEMENT_SET_NO": 999, "REV_AT_EPOCH": 387, "BSTAR": 0.0005900149, "MEAN_MOTION_DOT": 0.00011964, "MEAN_MOTION_DDOT": 0}, "tle": {"line1": "1 66715U 25276BB  25356.22525424  .00011964  00000+0  59001-3 0  9992", "line2": "2 66715  97.4396  67.8365 0001987 188.8195 171.3005 15.18068857  3879"}}, "geometry": {"type": "Point", "coordinates": [72.51179256892594, -29.80052501345825]}}, {"type": "Feature", "properties": {"norad_id": 66716, "name": "FLOCK 4H-13", "group": "last-30-days", "lat": -18.747683938365306, "lon": 70.78257731063538, "alt_km": 517.5529215436591, "timestamp": "2025-12-22T14:45:56.096791+00:00", "meta": {"OBJECT_NAME": "FLOCK 4H-13", "OBJECT_ID": "2025-276BC", "EPOCH": "2025-12-22T05:21:27.627552", "MEAN_MOTION": 15.18181821, "ECCENTRICITY": 0.00016228, "INCLINATION": 97.4433, "RA_OF_ASC_NODE": 67.8537, "ARG_OF_PERICENTER": 148.4276, "MEAN_ANOMALY": 211.7056, "EPHEMERIS_TYPE": 0, "CLASSIFICATION_TYPE": "U", "NORAD_CAT_ID": 66716, "ELEMENT_SET_NO": 999, "REV_AT_EPOCH": 356, "BSTAR": 0.00061794235, "MEAN_MOTION_DOT": 0.00012575, "MEAN_MOTION_DDOT": 0}, "tle": {"line1": "1 66716U 25276BC  25356.22323643  .00012575  00000+0  61794-3 0  9993", "line2": "2 66716  97.4433  67.8537 0001622 148.4276 211.7056 15.18181821  3569"}}, "geometry": {"type": "Point", "coordinates": [70.78257731063538, -18.747683938365306]}}]}